*******************************************************************************
 Revised: Jul 27, 2005   Pioneer 10 Spacecraft (interplanetary) / (Sun)     -23
                       http://nssdc.gsfc.nasa.gov/nmc/tmp/1972-012A.html

 BACKGROUND
  This mission was the first to be sent to the outer solar system and the 
  first to investigate the planet Jupiter. After the encounter, it followed 
  an escape trajectory from the solar system. 

  The spacecraft achieved its closest approach to Jupiter on December 4, 1973
  (UTC), when it reached approximately 2.8 Jovian radii (about 200,000 km). 

  The last fully successful acquisition of signal was March 3, 2002. Pioneer 10
  signal at the Earth (<= 185 dBm) is now at DSN threshold limit of reception. 

          Launched            : 1972-03-03 at 01:49:00 UTC
          On-orbit dry mass   : 258 kg
          Nominal Power Output: 165 W

 SPACECRAFT TRAJECTORY: ("pfile10.nio")

  Trajectory was provided by JPL Navigation Team. The JPL Multimission NAV and 
  Solar System Dynamics Group source files merged consist of:
 
     PN10A, PN10B, PN10C, PN10D, PN10E, PN10F, PN10G, DE118
 
  The circumstances pertaining to the regeneration of the above spacecraft
  trajectory source files PN10* are not well known.
 
  DE118 was the standard JPL planet ephemeris for the P10 Jupiter flyby era.

  NOTE: This trajectory is suitable for general historical purposes, but should
  be used cautiously for high precision or tracking data applications. This is 
  due to potential dynamical mismatches between the Pioneer-10 era models 
  and the current modern solutions used by Horizons; for example, the old 
  DE-118 planetary ephemeris solution and the Lieske E3 satellite theory of
  JUP035 of that time, as compared to what is used now. 

  For example, if the Pioneer-10 solutions used here incorporate planet or 
  satellite ephemeris corrections estimated at the time, distance from the 
  satellites returned by Horizons could be slightly different relative to 
  the original solutions. However, the coordinate system transformation from 
  the original DE-118 planetary ephemeris to the modern ICRF frame IS known 
  and computed by Horizons.
*******************************************************************************
 
 
*******************************************************************************
Ephemeris / WWW_USER Thu Aug 15 22:55:20 2019 Pasadena, USA      / Horizons    
*******************************************************************************
Target body name: Pioneer 10 (spacecraft) (-23)   {source: pioneer_10}
Center body name: Solar System Barycenter (0)     {source: DE431mx}
Center-site name: BODYCENTRIC
*******************************************************************************
Start time      : A.D. 1972-Mar-04 00:00:00.0000 UT      
Stop  time      : A.D. 2030-Jan-01 00:00:00.0000 UT      
Step-size       : 1440 minutes
*******************************************************************************
Target pole/equ : No model available
Target radii    : (unavailable)                                                
Center geodetic : 0.00000000,0.00000000,0.0000000 {E-lon(deg),Lat(deg),Alt(km)}
Center cylindric: 0.00000000,0.00000000,0.0000000 {E-lon(deg),Dxy(km),Dz(km)}
Center pole/equ : ICRF/J2000.0
Center radii    : (undefined)                                                  
Target primary  : Earth
Vis. interferer : None
Rel. light bend : Sun                             {source: pioneer_10}
Rel. lght bnd GM: 1.3271E+11 km^3/s^2                                          
Atmos refraction: NO (AIRLESS)
RA format       : DEG
Time format     : CAL 
EOP file        : eop.190815.p191106                                           
EOP coverage    : DATA-BASED 1962-JAN-20 TO 2019-AUG-15. PREDICTS-> 2019-NOV-05
Units conversion: 1 au= 149597870.700 km, c= 299792.458 km/s, 1 day= 86400.0 s 
Table cut-offs 1: Elevation (-90.0deg=NO ),Airmass     n.a.    , Daylight (NO )
Table cut-offs 2: Solar elongation (  0.0,180.0=NO ),Local Hour Angle( 0.0=NO )
Table cut-offs 3: RA/DEC angular rate (     0.0=NO )                           
*******************************************************************************
 Date__(UT)__HR:MN:SS                delta     GlxLon     GlxLat
****************************************************************
$$SOE
 1975-Mar-27 00:00:00     1.0383411663E+09 121.215971 -55.485745
 1975-Mar-28 00:00:00     1.0393256813E+09 121.338691 -55.455086
 1975-Mar-29 00:00:00     1.0403110994E+09 121.460988 -55.424363
 1975-Mar-30 00:00:00     1.0412974169E+09 121.582863 -55.393577
 1975-Mar-31 00:00:00     1.0422846306E+09 121.704317 -55.362728
 1975-Apr-01 00:00:00     1.0432727371E+09 121.825353 -55.331818
 1975-Apr-02 00:00:00     1.0442617328E+09 121.945970 -55.300847
 1975-Apr-03 00:00:00     1.0452516144E+09 122.066171 -55.269817
 1975-Apr-04 00:00:00     1.0462423786E+09 122.185957 -55.238729
 1975-Apr-05 00:00:00     1.0472340220E+09 122.305328 -55.207582
 1975-Apr-06 00:00:00     1.0482265411E+09 122.424287 -55.176378
 1975-Apr-07 00:00:00     1.0492199328E+09 122.542835 -55.145119
 1975-Apr-08 00:00:00     1.0502141936E+09 122.660972 -55.113804
 1975-Apr-09 00:00:00     1.0512093202E+09 122.778701 -55.082435
 1975-Apr-10 00:00:00     1.0522053094E+09 122.896023 -55.051012
 1975-Apr-11 00:00:00     1.0532021578E+09 123.012938 -55.019536
 1975-Apr-12 00:00:00     1.0541998621E+09 123.129449 -54.988009
 1975-Apr-13 00:00:00     1.0551984190E+09 123.245557 -54.956430
 1975-Apr-14 00:00:00     1.0561978254E+09 123.361262 -54.924801
 1975-Apr-15 00:00:00     1.0571980779E+09 123.476567 -54.893123
 1975-Apr-16 00:00:00     1.0581991733E+09 123.591473 -54.861395
 1975-Apr-17 00:00:00     1.0592011083E+09 123.705981 -54.829620
 1975-Apr-18 00:00:00     1.0602038798E+09 123.820092 -54.797798
 1975-Apr-19 00:00:00     1.0612074846E+09 123.933807 -54.765930
 1975-Apr-20 00:00:00     1.0622119194E+09 124.047129 -54.734016
 1975-Apr-21 00:00:00     1.0632171810E+09 124.160058 -54.702057
 1975-Apr-22 00:00:00     1.0642232664E+09 124.272596 -54.670055
 1975-Apr-23 00:00:00     1.0652301722E+09 124.384744 -54.638009
 1975-Apr-24 00:00:00     1.0662378954E+09 124.496504 -54.605920
 1975-Apr-25 00:00:00     1.0672464329E+09 124.607876 -54.573790
 1975-Apr-26 00:00:00     1.0682557814E+09 124.718863 -54.541619
 1975-Apr-27 00:00:00     1.0692659379E+09 124.829465 -54.509407
 1975-Apr-28 00:00:00     1.0702768993E+09 124.939684 -54.477156
 1975-Apr-29 00:00:00     1.0712886625E+09 125.049522 -54.444866
 1975-Apr-30 00:00:00     1.0723012243E+09 125.158979 -54.412538
 1975-May-01 00:00:00     1.0733145817E+09 125.268057 -54.380173
 1975-May-02 00:00:00     1.0743287316E+09 125.376757 -54.347771
 1975-May-03 00:00:00     1.0753436711E+09 125.485081 -54.315333
 1975-May-04 00:00:00     1.0763593969E+09 125.593030 -54.282859
 1975-May-05 00:00:00     1.0773759062E+09 125.700605 -54.250351
 1975-May-06 00:00:00     1.0783931958E+09 125.807808 -54.217809
 1975-May-07 00:00:00     1.0794112629E+09 125.914640 -54.185234
 1975-May-08 00:00:00     1.0804301042E+09 126.021103 -54.152626
 1975-May-09 00:00:00     1.0814497170E+09 126.127197 -54.119986
 1975-May-10 00:00:00     1.0824700981E+09 126.232925 -54.087315
 1975-May-11 00:00:00     1.0834912447E+09 126.338287 -54.054613
 1975-May-12 00:00:00     1.0845131537E+09 126.443285 -54.021881
 1975-May-13 00:00:00     1.0855358222E+09 126.547920 -53.989120
 1975-May-14 00:00:00     1.0865592473E+09 126.652194 -53.956330
 1975-May-15 00:00:00     1.0875834261E+09 126.756107 -53.923512
 1975-May-16 00:00:00     1.0886083555E+09 126.859662 -53.890667
 1975-May-17 00:00:00     1.0896340328E+09 126.962859 -53.857795
 1975-May-18 00:00:00     1.0906604550E+09 127.065701 -53.824896
 1975-May-19 00:00:00     1.0916876193E+09 127.168187 -53.791972
 1975-May-20 00:00:00     1.0927155227E+09 127.270320 -53.759023
 1975-May-21 00:00:00     1.0937441624E+09 127.372101 -53.726050
 1975-May-22 00:00:00     1.0947735355E+09 127.473532 -53.693053
 1975-May-23 00:00:00     1.0958036393E+09 127.574613 -53.660033
 1975-May-24 00:00:00     1.0968344708E+09 127.675345 -53.626990
 1975-May-25 00:00:00     1.0978660272E+09 127.775732 -53.593925
 1975-May-26 00:00:00     1.0988983057E+09 127.875772 -53.560838
 1975-May-27 00:00:00     1.0999313035E+09 127.975469 -53.527731
 1975-May-28 00:00:00     1.1009650179E+09 128.074822 -53.494603
 1975-May-29 00:00:00     1.1019994459E+09 128.173835 -53.461455
 1975-May-30 00:00:00     1.1030345850E+09 128.272507 -53.428289
 1975-May-31 00:00:00     1.1040704322E+09 128.370840 -53.395103
 1975-Jun-01 00:00:00     1.1051069848E+09 128.468836 -53.361900
 1975-Jun-02 00:00:00     1.1061442401E+09 128.566496 -53.328679
 1975-Jun-03 00:00:00     1.1071821954E+09 128.663820 -53.295441
 1975-Jun-04 00:00:00     1.1082208479E+09 128.760812 -53.262186
 1975-Jun-05 00:00:00     1.1092601949E+09 128.857470 -53.228915
 1975-Jun-06 00:00:00     1.1103002337E+09 128.953798 -53.195629
 1975-Jun-07 00:00:00     1.1113409617E+09 129.049796 -53.162328
 1975-Jun-08 00:00:00     1.1123823760E+09 129.145466 -53.129013
 1975-Jun-09 00:00:00     1.1134244741E+09 129.240809 -53.095683
 1975-Jun-10 00:00:00     1.1144672532E+09 129.335826 -53.062340
 1975-Jun-11 00:00:00     1.1155107108E+09 129.430518 -53.028985
 1975-Jun-12 00:00:00     1.1165548441E+09 129.524887 -52.995616
 1975-Jun-13 00:00:00     1.1175996506E+09 129.618934 -52.962236
 1975-Jun-14 00:00:00     1.1186451276E+09 129.712660 -52.928845
 1975-Jun-15 00:00:00     1.1196912725E+09 129.806067 -52.895442
 1975-Jun-16 00:00:00     1.1207380826E+09 129.899156 -52.862029
 1975-Jun-17 00:00:00     1.1217855554E+09 129.991928 -52.828606
 1975-Jun-18 00:00:00     1.1228336883E+09 130.084384 -52.795173
 1975-Jun-19 00:00:00     1.1238824787E+09 130.176526 -52.761731
 1975-Jun-20 00:00:00     1.1249319241E+09 130.268354 -52.728281
